GLOBALSTAR M067         
1 32263U 07048A   25312.47932845 -.00000095  00000+0  15245-4 0  9995
2 32263  51.9749 333.7181 0000893 296.4196 211.5598 12.40680665827394
GLOBALSTAR M070         
1 32264U 07048B   25312.48580059 -.00000101  00000+0  13583-4 0  9994
2 32264  51.9765  48.9053 0000799 118.1873 323.8435 12.62325045831892
GLOBALSTAR M066         
1 32265U 07048C   25312.34425521 -.00000087  00000+0  63261-4 0  9993
2 32265  51.9606 331.8875 0004690 302.2689  70.9921 12.30378081833040
GLOBALSTAR M068         
1 32266U 07048D   25312.46357079 -.00000064  00000+0  22337-3 0  9992
2 32266  51.9877 222.4502 0001821  80.5759  91.2590 12.62832225835781
GLOBALSTAR M079         
1 37188U 10054A   25312.07827737 -.00000106  00000+0 -11382-4 0  9998
2 37188  52.0048  61.7563 0000569 135.4035  34.9691 12.62268182694624
GLOBALSTAR M074         
1 37189U 10054B   25312.48042522 -.00000105  00000+0 -50212-5 0  9990
2 37189  52.0027  59.8317 0000632 106.0066 332.6392 12.62272841695282
GLOBALSTAR M076         
1 37190U 10054C   25312.50763391 -.00000113  00000+0 -53133-4 0  9992
2 37190  52.0036  59.9345 0000428 109.7767 331.2909 12.62267145695007
GLOBALSTAR M077         
1 37191U 10054D   25312.51413991 -.00000037  00000+0  55731-3 0  9991
2 37191  52.0119  22.9654 0001958  88.9061  42.3317 12.12460189695288
